<?xml version="1.0" encoding="UTF-8"?>
<ndm xmlns:xsi="http://www.w3.org/2001/XMLSchema-instance" xsi:noNamespaceSchemaLocation="https://sanaregistry.org/r/ndmxml_unqualified/ndmxml-2.0.0-master-2.0.xsd">
<omm id="CCSDS_OMM_VERS" version="2.0">
<header><CREATION_DATE/><ORIGINATOR/></header><body><segment><metadata><OBJECT_NAME>KUIPER-00124</OBJECT_NAME><OBJECT_ID>2025-228G</OBJECT_ID><CENTER_NAME>EARTH</CENTER_NAME><REF_FRAME>TEME</REF_FRAME><TIME_SYSTEM>UTC</TIME_SYSTEM><MEAN_ELEMENT_THEORY>SGP4</MEAN_ELEMENT_THEORY></metadata><data><meanElements><EPOCH>2026-01-25T19:39:37.427616</EPOCH><MEAN_MOTION>14.79927472</MEAN_MOTION><ECCENTRICITY>.0001855</ECCENTRICITY><INCLINATION>51.8950</INCLINATION><RA_OF_ASC_NODE>185.1553</RA_OF_ASC_NODE><ARG_OF_PERICENTER>75.5097</ARG_OF_PERICENTER><MEAN_ANOMALY>284.6071</MEAN_ANOMALY></meanElements><tleParameters><EPHEMERIS_TYPE>0</EPHEMERIS_TYPE><CLASSIFICATION_TYPE>U</CLASSIFICATION_TYPE><NORAD_CAT_ID>65953</NORAD_CAT_ID><ELEMENT_SET_NO>999</ELEMENT_SET_NO><REV_AT_EPOCH>1695</REV_AT_EPOCH><BSTAR>-.10948377E-3</BSTAR><MEAN_MOTION_DOT>-.1056E-4</MEAN_MOTION_DOT><MEAN_MOTION_DDOT>0</MEAN_MOTION_DDOT></tleParameters></data></segment></body></omm>
<omm id="CCSDS_OMM_VERS" version="2.0">
<header><CREATION_DATE/><ORIGINATOR/></header><body><segment><metadata><OBJECT_NAME>KUIPER-00125</OBJECT_NAME><OBJECT_ID>2025-228H</OBJECT_ID><CENTER_NAME>EARTH</CENTER_NAME><REF_FRAME>TEME</REF_FRAME><TIME_SYSTEM>UTC</TIME_SYSTEM><MEAN_ELEMENT_THEORY>SGP4</MEAN_ELEMENT_THEORY></metadata><data><meanElements><EPOCH>2026-01-26T12:00:00.998784</EPOCH><MEAN_MOTION>14.96208380</MEAN_MOTION><ECCENTRICITY>.0002189</ECCENTRICITY><INCLINATION>51.8940</INCLINATION><RA_OF_ASC_NODE>167.8502</RA_OF_ASC_NODE><ARG_OF_PERICENTER>165.0993</ARG_OF_PERICENTER><MEAN_ANOMALY>140.4515</MEAN_ANOMALY></meanElements><tleParameters><EPHEMERIS_TYPE>0</EPHEMERIS_TYPE><CLASSIFICATION_TYPE>U</CLASSIFICATION_TYPE><NORAD_CAT_ID>65954</NORAD_CAT_ID><ELEMENT_SET_NO>999</ELEMENT_SET_NO><REV_AT_EPOCH>523</REV_AT_EPOCH><BSTAR>-.12856E-2</BSTAR><MEAN_MOTION_DOT>-.14878E-3</MEAN_MOTION_DOT><MEAN_MOTION_DDOT>0</MEAN_MOTION_DDOT></tleParameters></data></segment></body></omm>
<omm id="CCSDS_OMM_VERS" version="2.0">
<header><CREATION_DATE/><ORIGINATOR/></header><body><segment><metadata><OBJECT_NAME>KUIPER-00126</OBJECT_NAME><OBJECT_ID>2025-228J</OBJECT_ID><CENTER_NAME>EARTH</CENTER_NAME><REF_FRAME>TEME</REF_FRAME><TIME_SYSTEM>UTC</TIME_SYSTEM><MEAN_ELEMENT_THEORY>SGP4</MEAN_ELEMENT_THEORY></metadata><data><meanElements><EPOCH>2026-01-26T04:26:46.329216</EPOCH><MEAN_MOTION>14.79933956</MEAN_MOTION><ECCENTRICITY>.0000419</ECCENTRICITY><INCLINATION>51.8967</INCLINATION><RA_OF_ASC_NODE>188.5627</RA_OF_ASC_NODE><ARG_OF_PERICENTER>100.8130</ARG_OF_PERICENTER><MEAN_ANOMALY>259.2880</MEAN_ANOMALY></meanElements><tleParameters><EPHEMERIS_TYPE>0</EPHEMERIS_TYPE><CLASSIFICATION_TYPE>U</CLASSIFICATION_TYPE><NORAD_CAT_ID>65955</NORAD_CAT_ID><ELEMENT_SET_NO>999</ELEMENT_SET_NO><REV_AT_EPOCH>1693</REV_AT_EPOCH><BSTAR>.70787E-3</BSTAR><MEAN_MOTION_DOT>.518E-4</MEAN_MOTION_DOT><MEAN_MOTION_DDOT>0</MEAN_MOTION_DDOT></tleParameters></data></segment></body></omm>
<omm id="CCSDS_OMM_VERS" version="2.0">
<header><CREATION_DATE/><ORIGINATOR/></header><body><segment><metadata><OBJECT_NAME>KUIPER-00127</OBJECT_NAME><OBJECT_ID>2025-228K</OBJECT_ID><CENTER_NAME>EARTH</CENTER_NAME><REF_FRAME>TEME</REF_FRAME><TIME_SYSTEM>UTC</TIME_SYSTEM><MEAN_ELEMENT_THEORY>SGP4</MEAN_ELEMENT_THEORY></metadata><data><meanElements><EPOCH>2026-01-26T03:52:07.038912</EPOCH><MEAN_MOTION>14.98271374</MEAN_MOTION><ECCENTRICITY>.00050865</ECCENTRICITY><INCLINATION>51.8936</INCLINATION><RA_OF_ASC_NODE>181.6140</RA_OF_ASC_NODE><ARG_OF_PERICENTER>210.3887</ARG_OF_PERICENTER><MEAN_ANOMALY>149.6789</MEAN_ANOMALY></meanElements><tleParameters><EPHEMERIS_TYPE>0</EPHEMERIS_TYPE><CLASSIFICATION_TYPE>U</CLASSIFICATION_TYPE><NORAD_CAT_ID>65956</NORAD_CAT_ID><ELEMENT_SET_NO>999</ELEMENT_SET_NO><REV_AT_EPOCH>1703</REV_AT_EPOCH><BSTAR>.87277703E-3</BSTAR><MEAN_MOTION_DOT>.10246E-3</MEAN_MOTION_DOT><MEAN_MOTION_DDOT>0</MEAN_MOTION_DDOT></tleParameters></data></segment></body></omm>
<omm id="CCSDS_OMM_VERS" version="2.0">
<header><CREATION_DATE/><ORIGINATOR/></header><body><segment><metadata><OBJECT_NAME>KUIPER-00128</OBJECT_NAME><OBJECT_ID>2025-228L</OBJECT_ID><CENTER_NAME>EARTH</CENTER_NAME><REF_FRAME>TEME</REF_FRAME><TIME_SYSTEM>UTC</TIME_SYSTEM><MEAN_ELEMENT_THEORY>SGP4</MEAN_ELEMENT_THEORY></metadata><data><meanElements><EPOCH>2026-01-26T03:49:48.131904</EPOCH><MEAN_MOTION>14.79995922</MEAN_MOTION><ECCENTRICITY>.00008024</ECCENTRICITY><INCLINATION>51.8996</INCLINATION><RA_OF_ASC_NODE>181.1846</RA_OF_ASC_NODE><ARG_OF_PERICENTER>73.8166</ARG_OF_PERICENTER><MEAN_ANOMALY>286.2885</MEAN_ANOMALY></meanElements><tleParameters><EPHEMERIS_TYPE>0</EPHEMERIS_TYPE><CLASSIFICATION_TYPE>U</CLASSIFICATION_TYPE><NORAD_CAT_ID>65957</NORAD_CAT_ID><ELEMENT_SET_NO>999</ELEMENT_SET_NO><REV_AT_EPOCH>1703</REV_AT_EPOCH><BSTAR>.9256248E-3</BSTAR><MEAN_MOTION_DOT>.6853E-4</MEAN_MOTION_DOT><MEAN_MOTION_DDOT>0</MEAN_MOTION_DDOT></tleParameters></data></segment></body></omm>
<omm id="CCSDS_OMM_VERS" version="2.0">
<header><CREATION_DATE/><ORIGINATOR/></header><body><segment><metadata><OBJECT_NAME>KUIPER-00129</OBJECT_NAME><OBJECT_ID>2025-228M</OBJECT_ID><CENTER_NAME>EARTH</CENTER_NAME><REF_FRAME>TEME</REF_FRAME><TIME_SYSTEM>UTC</TIME_SYSTEM><MEAN_ELEMENT_THEORY>SGP4</MEAN_ELEMENT_THEORY></metadata><data><meanElements><EPOCH>2026-01-26T12:00:00.998784</EPOCH><MEAN_MOTION>14.79925887</MEAN_MOTION><ECCENTRICITY>.0001685</ECCENTRICITY><INCLINATION>51.8988</INCLINATION><RA_OF_ASC_NODE>174.6651</RA_OF_ASC_NODE><ARG_OF_PERICENTER>120.0212</ARG_OF_PERICENTER><MEAN_ANOMALY>45.5324</MEAN_ANOMALY></meanElements><tleParameters><EPHEMERIS_TYPE>0</EPHEMERIS_TYPE><CLASSIFICATION_TYPE>U</CLASSIFICATION_TYPE><NORAD_CAT_ID>65958</NORAD_CAT_ID><ELEMENT_SET_NO>999</ELEMENT_SET_NO><REV_AT_EPOCH>576</REV_AT_EPOCH><BSTAR>-.16283E-3</BSTAR><MEAN_MOTION_DOT>-.1462E-4</MEAN_MOTION_DOT><MEAN_MOTION_DDOT>0</MEAN_MOTION_DDOT></tleParameters></data></segment></body></omm>
<omm id="CCSDS_OMM_VERS" version="2.0">
<header><CREATION_DATE/><ORIGINATOR/></header><body><segment><metadata><OBJECT_NAME>KUIPER-00130</OBJECT_NAME><OBJECT_ID>2025-228N</OBJECT_ID><CENTER_NAME>EARTH</CENTER_NAME><REF_FRAME>TEME</REF_FRAME><TIME_SYSTEM>UTC</TIME_SYSTEM><MEAN_ELEMENT_THEORY>SGP4</MEAN_ELEMENT_THEORY></metadata><data><meanElements><EPOCH>2026-01-25T03:34:58.476288</EPOCH><MEAN_MOTION>14.79957433</MEAN_MOTION><ECCENTRICITY>.00010469</ECCENTRICITY><INCLINATION>51.8974</INCLINATION><RA_OF_ASC_NODE>183.1331</RA_OF_ASC_NODE><ARG_OF_PERICENTER>77.5326</ARG_OF_PERICENTER><MEAN_ANOMALY>282.5753</MEAN_ANOMALY></meanElements><tleParameters><EPHEMERIS_TYPE>0</EPHEMERIS_TYPE><CLASSIFICATION_TYPE>U</CLASSIFICATION_TYPE><NORAD_CAT_ID>65959</NORAD_CAT_ID><ELEMENT_SET_NO>999</ELEMENT_SET_NO><REV_AT_EPOCH>721</REV_AT_EPOCH><BSTAR>.26305271E-3</BSTAR><MEAN_MOTION_DOT>.1786E-4</MEAN_MOTION_DOT><MEAN_MOTION_DDOT>0</MEAN_MOTION_DDOT></tleParameters></data></segment></body></omm>
<omm id="CCSDS_OMM_VERS" version="2.0">
<header><CREATION_DATE/><ORIGINATOR/></header><body><segment><metadata><OBJECT_NAME>KUIPER-00134</OBJECT_NAME><OBJECT_ID>2025-228P</OBJECT_ID><CENTER_NAME>EARTH</CENTER_NAME><REF_FRAME>TEME</REF_FRAME><TIME_SYSTEM>UTC</TIME_SYSTEM><MEAN_ELEMENT_THEORY>SGP4</MEAN_ELEMENT_THEORY></metadata><data><meanElements><EPOCH>2026-01-26T02:03:08.621280</EPOCH><MEAN_MOTION>15.37098426</MEAN_MOTION><ECCENTRICITY>.00066052</ECCENTRICITY><INCLINATION>51.8723</INCLINATION><RA_OF_ASC_NODE>166.5189</RA_OF_ASC_NODE><ARG_OF_PERICENTER>163.6359</ARG_OF_PERICENTER><MEAN_ANOMALY>196.4842</MEAN_ANOMALY></meanElements><tleParameters><EPHEMERIS_TYPE>0</EPHEMERIS_TYPE><CLASSIFICATION_TYPE>U</CLASSIFICATION_TYPE><NORAD_CAT_ID>65960</NORAD_CAT_ID><ELEMENT_SET_NO>999</ELEMENT_SET_NO><REV_AT_EPOCH>1723</REV_AT_EPOCH><BSTAR>.18372305E-2</BSTAR><MEAN_MOTION_DOT>.68011E-3</MEAN_MOTION_DOT><MEAN_MOTION_DDOT>0</MEAN_MOTION_DDOT></tleParameters></data></segment></body></omm>
<omm id="CCSDS_OMM_VERS" version="2.0">
<header><CREATION_DATE/><ORIGINATOR/></header><body><segment><metadata><OBJECT_NAME>KUIPER-00135</OBJECT_NAME><OBJECT_ID>2025-228Q</OBJECT_ID><CENTER_NAME>EARTH</CENTER_NAME><REF_FRAME>TEME</REF_FRAME><TIME_SYSTEM>UTC</TIME_SYSTEM><MEAN_ELEMENT_THEORY>SGP4</MEAN_ELEMENT_THEORY></metadata><data><meanElements><EPOCH>2026-01-26T03:05:04.099488</EPOCH><MEAN_MOTION>14.79986295</MEAN_MOTION><ECCENTRICITY>.00007522</ECCENTRICITY><INCLINATION>51.8992</INCLINATION><RA_OF_ASC_NODE>178.8688</RA_OF_ASC_NODE><ARG_OF_PERICENTER>113.1313</ARG_OF_PERICENTER><MEAN_ANOMALY>246.9729</MEAN_ANOMALY></meanElements><tleParameters><EPHEMERIS_TYPE>0</EPHEMERIS_TYPE><CLASSIFICATION_TYPE>U</CLASSIFICATION_TYPE><NORAD_CAT_ID>65961</NORAD_CAT_ID><ELEMENT_SET_NO>999</ELEMENT_SET_NO><REV_AT_EPOCH>1706</REV_AT_EPOCH><BSTAR>.77024245E-3</BSTAR><MEAN_MOTION_DOT>.5663E-4</MEAN_MOTION_DOT><MEAN_MOTION_DDOT>0</MEAN_MOTION_DDOT></tleParameters></data></segment></body></omm>

</ndm>
